NUSAT-1 (FRESCO)        
1 41557U 16033B   22176.13829436  .00011341  00000+0  33705-3 0  9999
2 41557  97.3880 273.8474 0010132 358.7502  85.6281 15.34877978338565
BEESAT-4                
1 41619U 16040W   22175.69603680  .00009376  00000+0  31179-3 0  9995
2 41619  97.2165 226.1319 0011265  93.7935 266.4595 15.31319412321832
CAS-2T & KS-1Q          
1 41847U 16066G   22175.78522672  .00000760  00000+0  12387-3 0  9995
2 41847  98.5507 240.4495 0363719 187.7705 171.7754 14.38595214295406
NAYIF-1 (EO-88)         
1 42017U 17008BX  22176.12760757  .00011557  00000+0  34394-3 0  9997
2 42017  97.2690 242.1304 0004752 196.2406 163.8686 15.34862401298259
ZHUHAI-1 02 (CAS-4B)    
1 42759U 17034B   22176.09068287  .00004157  00000+0  25060-3 0  9992
2 42759  43.0181 290.6041 0010122 331.2410  21.8026 15.11975930277509
ZHUHAI-1 01 (CAS-4A)    
1 42761U 17034D   22176.20689938  .00003628  00000+0  21986-3 0  9995
2 42761  43.0179 288.7455 0010157 333.5272 100.4756 15.12061204277533
MAX VALIER SAT          
1 42778U 17036P   22175.85914209  .00006130  00000+0  23290-3 0  9998
2 42778  97.2048 216.7057 0008863 304.7513  55.2891 15.27120865278033
RADFXSAT (FOX-1B)       
1 43017U 17073E   22175.66680394  .00002264  00000+0  17356-3 0  9990
2 43017  97.6751  69.5662 0248907 163.8960 197.0352 14.81431193248184
FOX-1D (AO-92)          
1 43137U 18004AC  22175.75016203  .00006668  00000+0  23546-3 0  9990
2 43137  97.3688 250.8407 0006722 348.1329  11.9752 15.29527982247462
DIWATA-2B               
1 43678U 18084H   22176.09402148  .00000718  00000+0  76246-4 0  9999
2 43678  97.9717 309.4490 0008447 258.0952 101.9277 14.92184735198990
ES'HAIL 2               
1 43700U 18090A   22175.80257730  .00000149  00000+0  00000+0 0  9993
2 43700   0.0120  54.1853 0001063  62.7639 110.6880  1.00273387 13108
FOX-1CLIFF (AO-95)      
1 43770U 18099N   22176.14618466  .00001961  00000+0  17753-3 0  9994
2 43770  97.6213 242.2966 0012454 246.6995 113.2917 14.96476642194163
ITASAT 1                
1 43786U 18099AE  22175.73757895  .00002158  00000+0  19414-3 0  9990
2 43786  97.6235 242.8210 0013327 240.0089 119.9810 14.96612536194141
JY1SAT (JO-97)          
1 43803U 18099AX  22175.75292986  .00001499  00000+0  13470-3 0  9990
2 43803  97.6203 242.5936 0013102 239.5186 120.4743 14.97118152194160
UWE-4                   
1 43880U 18111E   22176.01459221  .00002377  00000+0  20505-3 0  9990
2 43880  97.6678  82.1930 0009987 298.9978  61.0243 14.98195260188835
NEXUS (FO-99)           
1 43937U 19003F   22176.07896960  .00008459  00000+0  28392-3 0  9994
2 43937  97.1298 209.1330 0022438 124.5106 235.8259 15.30859249191146
PSAT2 (NO-104)          
1 44354U 19036R   22176.17660390  .00068567 -49052-5  60171-3 0  9995
2 44354  28.5230 124.7802 0226611  57.7295 304.5049 15.40806814165867
JAISAT-1                
1 44419U 19038F   22175.88873210  .00005088  00000+0  25643-3 0  9990
2 44419  97.6351 146.0712 0021324 104.5628 255.7972 15.17424005164180
DUCHIFAT-3              
1 44854U 19089C   22176.02304475  .00003407  00000+0  26680-3 0  9993
2 44854  36.9663  55.4676 0009664 286.3890  73.5754 15.01129983139074
CAS-6 (TO-108)          
1 44881U 19093C   22176.07438138  .00000581  00000+0  80210-4 0  9997
2 44881  97.8925 255.1738 0015563 156.5133 203.6792 14.81737769135902
RS-44 & BREEZE-KM R/B   
1 44909U 19096E   22175.53979167  .00000019  00000+0  37136-4 0  9998
2 44909  82.5211 225.5678 0216348 303.3503  54.7053 12.79713566116417
ORBITAL FACTORY 2 (OF-2)
1 45113U 19071C   22175.86843073  .00018494  00000+0  38282-3 0  9999
2 45113  51.6392  22.8754 0009996 195.1966 164.8722 15.45773755134524
HUSKYSAT-1 (HO-107)     
1 45119U 19071J   22175.87869160  .00015375  00000+0  33045-3 0  9998
2 45119  51.6396  22.9177 0009766 191.2743 168.8026 15.44816117134518
BY70-2                  
1 45857U 20042B   22176.06687924  .00006859  00000+0  91391-3 0  9990
2 45857  97.9544 252.8336 0012436  95.3329 264.9273 14.79908067106589
SALSAT                  
1 46495U 20068K   22175.81150917  .00000988  00000+0  74841-4 0  9995
2 46495  97.7296 117.1142 0014753 251.2874 108.6751 15.04540880 95294
BY70-3                  
1 46839U 20079N   22176.22738382  .00021554  00000+0  50121-3 0  9999
2 46839  97.1981 248.2205 0003798 306.0232 143.6592 15.42331483 91445
RADFXSAT-2 (AO-109)     
1 47311U 21002C   22175.81005836  .00005134  00000+0  21177-3 0  9992
2 47311  60.6860 334.5516 0017490 341.9566  18.0899 15.25406701 79581
UVSQ-SAT                
1 47438U 21006AB  22175.73995836  .00003497  00000+0  18654-3 0  9991
2 47438  97.4370 234.6005 0010408 245.1763 114.8388 15.15772298 78385
DIY-1 (ARDUIQUBE)       
1 47963U 21022AH  22175.48624771  .00010442  00000+0  58123-3 0  9994
2 47963  97.5321  76.7640 0019082 105.7805 254.5532 15.13672552 68012
XW-3 (CAS-9)            
1 50466U 21131B   22176.17115399  .00000089  00000+0  43680-4 0  9994
2 50466  98.5804 253.4215 0005840 121.1392 239.0368 14.38503316 26020
TEVEL-3                 
1 50988U 22002E   22176.15550064  .00006773  00000+0  37075-3 0  9997
2 50988  97.4809 243.0086 0010503  45.8168   6.3143 15.14517057 24585
TEVEL-8                 
1 50989U 22002F   22176.16089429  .00006896  00000+0  37791-3 0  9992
2 50989  97.4826 243.0322 0010563  45.3920   6.8698 15.14466426 24588
TEVEL-5                 
1 50998U 22002Q   22176.11436807  .00007201  00000+0  38851-3 0  9992
2 50998  97.4803 243.0625 0012025  41.4703  46.2993 15.14995009 24580
TEVEL-6                 
1 50999U 22002R   22176.11039225  .00007225  00000+0  38975-3 0  9999
2 50999  97.4801 243.0565 0011965  41.1297  26.9499 15.14999525 24582
TEVEL-1                 
1 51013U 22002AF  22176.15787877  .00006803  00000+0  37258-3 0  9998
2 51013  97.4805 242.9954 0010407  45.3592   7.0813 15.14493521 24583
TEVEL-7                 
1 51062U 22002CG  22176.16222557  .00006911  00000+0  37885-3 0  9998
2 51062  97.4819 243.0238 0010545  45.2247   6.9534 15.14456472 24580
TEVEL-4                 
1 51063U 22002CH  22176.16276157  .00006905  00000+0  37862-3 0  9992
2 51063  97.4819 243.0221 0010426  45.6511   6.6970 15.14448708 24583
TEVEL-2                 
1 51069U 22002CP  22176.15657091  .00006790  00000+0  37171-3 0  9992
2 51069  97.4799 242.9987 0010453  46.1922   6.1144 15.14509651 24588
